{
  "type": "FeatureCollection",
  "features": [
    {
      "type": "Feature",
      "properties": {
        "norad_id": 40115,
        "name": "WORLDVIEW-3 (WV-3)",
        "group": "resource",
        "lat": -75.67738451617764,
        "lon": -154.5253390114141,
        "alt_km": 618.2349453664638,
        "timestamp": "2025-12-11T22:43:46.928637+00:00",
        "meta_object_name": "WORLDVIEW-3 (WV-3)",
        "meta_object_id": "2014-048A",
        "meta_epoch": "2025-12-11T15:06:20.303424",
        "meta_mean_motion": 14.85507738,
        "meta_eccentricity": 0.0004689,
        "meta_inclination": 97.8613,
        "meta_ra_of_asc_node": 57.9234,
        "meta_arg_of_pericenter": 188.2663,
        "meta_mean_anomaly": 171.8476,
        "meta_ephemeris_type": 0,
        "meta_classification_type": "U",
        "meta_norad_cat_id": 40115,
        "meta_element_set_no": 999,
        "meta_rev_at_epoch": 61407,
        "meta_bstar": 0.00024987653,
        "meta_mean_motion_dot": 2.104e-05,
        "meta_mean_motion_ddot": 0,
        "tle_line1": "1 40115U 14048A   25345.62940166  .00002104  00000+0  24988-3 0  9991",
        "tle_line2": "2 40115  97.8613  57.9234 0004689 188.2663 171.8476 14.85507738614078"
      },
      "geometry": {
        "type": "Point",
        "coordinates": [
          -154.5253390114141,
          -75.67738451617764
        ]
      }
    },
    {
      "type": "Feature",
      "properties": {
        "norad_id": 40118,
        "name": "GAOFEN-2",
        "group": "resource",
        "lat": 81.92066254594154,
        "lon": -39.42507263060564,
        "alt_km": 614.5212537670177,
        "timestamp": "2025-12-11T22:43:46.928648+00:00",
        "meta_object_name": "GAOFEN-2",
        "meta_object_id": "2014-049A",
        "meta_epoch": "2025-12-11T14:13:07.347360",
        "meta_mean_motion": 14.80606991,
        "meta_eccentricity": 0.0008616,
        "meta_inclination": 98.0378,
        "meta_ra_of_asc_node": 44.7584,
        "meta_arg_of_pericenter": 116.5907,
        "meta_mean_anomaly": 243.6188,
        "meta_ephemeris_type": 0,
        "meta_classification_type": "U",
        "meta_norad_cat_id": 40118,
        "meta_element_set_no": 999,
        "meta_rev_at_epoch": 61147,
        "meta_bstar": 0.00025107465,
        "meta_mean_motion_dot": 1.874e-05,
        "meta_mean_motion_ddot": 0,
        "tle_line1": "1 40118U 14049A   25345.59244615  .00001874  00000+0  25107-3 0  9994",
        "tle_line2": "2 40118  98.0378  44.7584 0008616 116.5907 243.6188 14.80606991611478"
      },
      "geometry": {
        "type": "Point",
        "coordinates": [
          -39.42507263060564,
          81.92066254594154
        ]
      }
    },
    {
      "type": "Feature",
      "properties": {
        "norad_id": 40143,
        "name": "YAOGAN-21",
        "group": "resource",
        "lat": -68.84240148619533,
        "lon": 48.290880436509426,
        "alt_km": 504.8927356539816,
        "timestamp": "2025-12-11T22:43:46.928658+00:00",
        "meta_object_name": "YAOGAN-21",
        "meta_object_id": "2014-053A",
        "meta_epoch": "2025-12-11T13:34:46.726176",
        "meta_mean_motion": 15.23663145,
        "meta_eccentricity": 0.00099382,
        "meta_inclination": 97.1754,
        "meta_ra_of_asc_node": 28.9295,
        "meta_arg_of_pericenter": 45.791,
        "meta_mean_anomaly": 314.4143,
        "meta_ephemeris_type": 0,
        "meta_classification_type": "U",
        "meta_norad_cat_id": 40143,
        "meta_element_set_no": 999,
        "meta_rev_at_epoch": 62636,
        "meta_bstar": 0.00054869533,
        "meta_mean_motion_dot": 0.00013119,
        "meta_mean_motion_ddot": 0,
        "tle_line1": "1 40143U 14053A   25345.56581859  .00013119  00000+0  54870-3 0  9992",
        "tle_line2": "2 40143  97.1754  28.9295 0009938  45.7910 314.4143 15.23663145626366"
      },
      "geometry": {
        "type": "Point",
        "coordinates": [
          48.290880436509426,
          -68.84240148619533
        ]
      }
    },
    {
      "type": "Feature",
      "properties": {
        "norad_id": 40275,
        "name": "YAOGAN-22",
        "group": "resource",
        "lat": -1.969997518858251,
        "lon": 129.72930600965887,
        "alt_km": 1206.201888896825,
        "timestamp": "2025-12-11T22:43:46.928668+00:00",
        "meta_object_name": "YAOGAN-22",
        "meta_object_id": "2014-063A",
        "meta_epoch": "2025-12-11T15:26:20.118624",
        "meta_mean_motion": 13.15522626,
        "meta_eccentricity": 0.00059501,
        "meta_inclination": 100.742,
        "meta_ra_of_asc_node": 129.0473,
        "meta_arg_of_pericenter": 250.9837,
        "meta_mean_anomaly": 109.063,
        "meta_ephemeris_type": 0,
        "meta_classification_type": "U",
        "meta_norad_cat_id": 40275,
        "meta_element_set_no": 999,
        "meta_rev_at_epoch": 53515,
        "meta_bstar": 5.0670224e-05,
        "meta_mean_motion_dot": -2.8e-07,
        "meta_mean_motion_ddot": 0,
        "tle_line1": "1 40275U 14063A   25345.64328841 -.00000028  00000+0  50670-4 0  9999",
        "tle_line2": "2 40275 100.7420 129.0473 0005950 250.9837 109.0630 13.15522626535154"
      },
      "geometry": {
        "type": "Point",
        "coordinates": [
          129.72930600965887,
          -1.969997518858251
        ]
      }
    },
    {
      "type": "Feature",
      "properties": {
        "norad_id": 40298,
        "name": "ASNARO",
        "group": "resource",
        "lat": -10.229122926158437,
        "lon": 63.24942754022568,
        "alt_km": 514.3334929326074,
        "timestamp": "2025-12-11T22:43:46.928678+00:00",
        "meta_object_name": "ASNARO",
        "meta_object_id": "2014-070A",
        "meta_epoch": "2025-12-11T14:52:20.976672",
        "meta_mean_motion": 15.19466624,
        "meta_eccentricity": 0.00054479,
        "meta_inclination": 97.3647,
        "meta_ra_of_asc_node": 61.5927,
        "meta_arg_of_pericenter": 124.9656,
        "meta_mean_anomaly": 235.2091,
        "meta_ephemeris_type": 0,
        "meta_classification_type": "U",
        "meta_norad_cat_id": 40298,
        "meta_element_set_no": 999,
        "meta_rev_at_epoch": 61552,
        "meta_bstar": 0.00104066,
        "meta_mean_motion_dot": 0.0002206,
        "meta_mean_motion_ddot": 0,
        "tle_line1": "1 40298U 14070A   25345.61968723  .00022060  00000+0  10407-2 0  9999",
        "tle_line2": "2 40298  97.3647  61.5927 0005447 124.9656 235.2091 15.19466624615529"
      },
      "geometry": {
        "type": "Point",
        "coordinates": [
          63.24942754022568,
          -10.229122926158437
        ]
      }
    },
    {
      "type": "Feature",
      "properties": {
        "norad_id": 40310,
        "name": "YAOGAN-24",
        "group": "resource",
        "lat": 80.70188559250951,
        "lon": 56.31212250067722,
        "alt_km": 628.0464188173864,
        "timestamp": "2025-12-11T22:43:46.928688+00:00",
        "meta_object_name": "YAOGAN-24",
        "meta_object_id": "2014-072A",
        "meta_epoch": "2025-12-11T15:50:11.854752",
        "meta_mean_motion": 14.7617512,
        "meta_eccentricity": 0.00147135,
        "meta_inclination": 98.1221,
        "meta_ra_of_asc_node": 116.7471,
        "meta_arg_of_pericenter": 141.3074,
        "meta_mean_anomaly": 218.9192,
        "meta_ephemeris_type": 0,
        "meta_classification_type": "U",
        "meta_norad_cat_id": 40310,
        "meta_element_set_no": 999,
        "meta_rev_at_epoch": 59605,
        "meta_bstar": 0.00036288911,
        "meta_mean_motion_dot": 2.46e-05,
        "meta_mean_motion_ddot": 0,
        "tle_line1": "1 40310U 14072A   25345.65985943  .00002460  00000+0  36289-3 0  9992",
        "tle_line2": "2 40310  98.1221 116.7471 0014713 141.3074 218.9192 14.76175120596057"
      },
      "geometry": {
        "type": "Point",
        "coordinates": [
          56.31212250067722,
          80.70188559250951
        ]
      }
    },
    {
      "type": "Feature",
      "properties": {
        "norad_id": 40336,
        "name": "CBERS 4",
        "group": "resource",
        "lat": -57.12781684128928,
        "lon": 57.09533396011191,
        "alt_km": 781.5577460414124,
        "timestamp": "2025-12-11T22:43:46.928698+00:00",
        "meta_object_name": "CBERS 4",
        "meta_object_id": "2014-079A",
        "meta_epoch": "2025-12-11T14:38:08.637216",
        "meta_mean_motion": 14.35517861,
        "meta_eccentricity": 0.00016308,
        "meta_inclination": 98.3305,
        "meta_ra_of_asc_node": 43.665,
        "meta_arg_of_pericenter": 112.8981,
        "meta_mean_anomaly": 247.2377,
        "meta_ephemeris_type": 0,
        "meta_classification_type": "U",
        "meta_norad_cat_id": 40336,
        "meta_element_set_no": 999,
        "meta_rev_at_epoch": 57704,
        "meta_bstar": 0.00017819123,
        "meta_mean_motion_dot": 4.71e-06,
        "meta_mean_motion_ddot": 0,
        "tle_line1": "1 40336U 14079A   25345.60982219  .00000471  00000+0  17819-3 0  9993",
        "tle_line2": "2 40336  98.3305  43.6650 0001630 112.8981 247.2377 14.35517861577046"
      },
      "geometry": {
        "type": "Point",
        "coordinates": [
          57.09533396011191,
          -57.12781684128928
        ]
      }
    }
  ]
}